SL-3 R/B                
1 13403U 82079B   26078.90355841  .00005358  00000+0  21216-3 0  9990
2 13403  81.1490 181.0178 0025392 130.8970 229.4468 15.24937368379250
SL-14 R/B               
1 13553U 82092B   26078.68327417  .00000365  00000+0  38224-4 0  9995
2 13553  82.5674 132.0518 0018746 267.8187 212.8568 14.86675198330414
SL-3 R/B                
1 13819U 83010B   26078.78961246  .00012136  00000+0  24098-3 0  9998
2 13819  81.1064 349.8636 0017006  17.6559 342.5273 15.46690270359508
SL-3 R/B                
1 14208U 83075B   26078.96321216  .00009430  00000+0  24746-3 0  9992
2 14208  97.6136  83.9309 0021232 187.5851 172.5076 15.38646478331733
COSMOS 1536             
1 14699U 84013A   26078.50377516  .00004826  00000+0  19789-3 0  9998
2 14699  82.5410  98.0910 0012623 244.2939 115.6995 15.23949021274112
SL-14 R/B               
1 14820U 84027B   26078.92839133  .00000451  00000+0  48804-4 0  9994
2 14820  82.5399 235.4082 0016676 302.2010  57.7589 14.85986869249157
SL-8 R/B                
1 15483U 85006B   26078.90363557  .00000301  00000+0  10846-3 0  9996
2 15483  74.0437 242.3518 0018024 157.3945 354.2727 14.37790636155492
SL-12 R/B(2)            
1 15772U 85042D   26078.96565527  .00000015  00000+0  27924-4 0  9992
2 15772  71.1069  66.0162 0032947 111.1537 315.1460 14.21985213115859
SL-14 R/B               
1 15945U 85069B   26078.91006619  .00000465  00000+0  49700-4 0  9995
2 15945  82.5299  15.3246 0019396 154.1441 206.0750 14.86444307174351
SL-16 R/B               
1 16182U 85097B   26078.53710638  .00000272  00000+0  16025-3 0  9990
2 16182  71.0013 119.8227 0009613 247.7499 264.0019 14.16599996 88628
SL-14 R/B               
1 16496U 86006B   26078.95179502  .00000708  00000+0  72670-4 0  9997
2 16496  82.5239 250.0759 0075270 238.1340 121.2537 14.86829680150736
COSMOS 1743             
1 16719U 86034A   26078.91220324  .00032279  00000+0  40903-3 0  9992
2 16719  82.5290  63.0931 0002497 205.3401 154.7733 15.59302832181841
