CCSDS_OMM_VERS = 2.0
CREATION_DATE  = 
ORIGINATOR     = 

OBJECT_NAME    = SL-3 R/B
OBJECT_ID      = 1982-079B
CENTER_NAME    = EARTH
REF_FRAME      = TEME
TIME_SYSTEM    = UTC
MEAN_ELEMENT_THEORY = SGP/SGP4

EPOCH          = 2026-03-19T21:41:07.446624
MEAN_MOTION    = 15.24937368
ECCENTRICITY   = .00253924
INCLINATION    = 81.1490
RA_OF_ASC_NODE = 181.0178
ARG_OF_PERICENTER = 130.8970
MEAN_ANOMALY   = 229.4468

EPHEMERIS_TYPE = 0
CLASSIFICATION_TYPE = U
NORAD_CAT_ID   = 13403
ELEMENT_SET_NO = 999
REV_AT_EPOCH   = 37925
BSTAR          = .21215741E-3
MEAN_MOTION_DOT = .5358E-4
MEAN_MOTION_DDOT = 0

CCSDS_OMM_VERS = 2.0
CREATION_DATE  = 
ORIGINATOR     = 

OBJECT_NAME    = SL-14 R/B
OBJECT_ID      = 1982-092B
CENTER_NAME    = EARTH
REF_FRAME      = TEME
TIME_SYSTEM    = UTC
MEAN_ELEMENT_THEORY = SGP/SGP4

EPOCH          = 2026-03-19T16:23:54.888288
MEAN_MOTION    = 14.86675198
ECCENTRICITY   = .00187469
INCLINATION    = 82.5674
RA_OF_ASC_NODE = 132.0518
ARG_OF_PERICENTER = 267.8187
MEAN_ANOMALY   = 212.8568

EPHEMERIS_TYPE = 0
CLASSIFICATION_TYPE = U
NORAD_CAT_ID   = 13553
ELEMENT_SET_NO = 999
REV_AT_EPOCH   = 33041
BSTAR          = .38224438E-4
MEAN_MOTION_DOT = .365E-5
MEAN_MOTION_DDOT = 0

CCSDS_OMM_VERS = 2.0
CREATION_DATE  = 
ORIGINATOR     = 

OBJECT_NAME    = SL-3 R/B
OBJECT_ID      = 1983-010B
CENTER_NAME    = EARTH
REF_FRAME      = TEME
TIME_SYSTEM    = UTC
MEAN_ELEMENT_THEORY = SGP/SGP4

EPOCH          = 2026-03-19T18:57:02.516544
MEAN_MOTION    = 15.46690270
ECCENTRICITY   = .00170068
INCLINATION    = 81.1064
RA_OF_ASC_NODE = 349.8636
ARG_OF_PERICENTER = 17.6559
MEAN_ANOMALY   = 342.5273

EPHEMERIS_TYPE = 0
CLASSIFICATION_TYPE = U
NORAD_CAT_ID   = 13819
ELEMENT_SET_NO = 999
REV_AT_EPOCH   = 35950
BSTAR          = .24097732E-3
MEAN_MOTION_DOT = .12136E-3
MEAN_MOTION_DDOT = 0

CCSDS_OMM_VERS = 2.0
CREATION_DATE  = 
ORIGINATOR     = 

OBJECT_NAME    = SL-3 R/B
OBJECT_ID      = 1983-075B
CENTER_NAME    = EARTH
REF_FRAME      = TEME
TIME_SYSTEM    = UTC
MEAN_ELEMENT_THEORY = SGP/SGP4

EPOCH          = 2026-03-19T23:07:01.530624
MEAN_MOTION    = 15.38646478
ECCENTRICITY   = .00212326
INCLINATION    = 97.6136
RA_OF_ASC_NODE = 83.9309
ARG_OF_PERICENTER = 187.5851
MEAN_ANOMALY   = 172.5076

EPHEMERIS_TYPE = 0
CLASSIFICATION_TYPE = U
NORAD_CAT_ID   = 14208
ELEMENT_SET_NO = 999
REV_AT_EPOCH   = 33173
BSTAR          = .24745908E-3
MEAN_MOTION_DOT = .943E-4
MEAN_MOTION_DDOT = 0

CCSDS_OMM_VERS = 2.0
CREATION_DATE  = 
ORIGINATOR     = 

OBJECT_NAME    = COSMOS 1536
OBJECT_ID      = 1984-013A
CENTER_NAME    = EARTH
REF_FRAME      = TEME
TIME_SYSTEM    = UTC
MEAN_ELEMENT_THEORY = SGP/SGP4

EPOCH          = 2026-03-19T12:05:26.173824
MEAN_MOTION    = 15.23949021
ECCENTRICITY   = .00126234
INCLINATION    = 82.5410
RA_OF_ASC_NODE = 98.0910
ARG_OF_PERICENTER = 244.2939
MEAN_ANOMALY   = 115.6995

EPHEMERIS_TYPE = 0
CLASSIFICATION_TYPE = U
NORAD_CAT_ID   = 14699
ELEMENT_SET_NO = 999
REV_AT_EPOCH   = 27411
BSTAR          = .19788997E-3
MEAN_MOTION_DOT = .4826E-4
MEAN_MOTION_DDOT = 0

CCSDS_OMM_VERS = 2.0
CREATION_DATE  = 
ORIGINATOR     = 

OBJECT_NAME    = SL-14 R/B
OBJECT_ID      = 1984-027B
CENTER_NAME    = EARTH
REF_FRAME      = TEME
TIME_SYSTEM    = UTC
MEAN_ELEMENT_THEORY = SGP/SGP4

EPOCH          = 2026-03-19T22:16:53.010912
MEAN_MOTION    = 14.85986869
ECCENTRICITY   = .00166761
INCLINATION    = 82.5399
RA_OF_ASC_NODE = 235.4082
ARG_OF_PERICENTER = 302.2010
MEAN_ANOMALY   = 57.7589

EPHEMERIS_TYPE = 0
CLASSIFICATION_TYPE = U
NORAD_CAT_ID   = 14820
ELEMENT_SET_NO = 999
REV_AT_EPOCH   = 24915
BSTAR          = .4880443E-4
MEAN_MOTION_DOT = .451E-5
MEAN_MOTION_DDOT = 0

CCSDS_OMM_VERS = 2.0
CREATION_DATE  = 
ORIGINATOR     = 

OBJECT_NAME    = SL-8 R/B
OBJECT_ID      = 1985-006B
CENTER_NAME    = EARTH
REF_FRAME      = TEME
TIME_SYSTEM    = UTC
MEAN_ELEMENT_THEORY = SGP/SGP4

EPOCH          = 2026-03-19T21:41:14.113248
MEAN_MOTION    = 14.37790636
ECCENTRICITY   = .00180243
INCLINATION    = 74.0437
RA_OF_ASC_NODE = 242.3518
ARG_OF_PERICENTER = 157.3945
MEAN_ANOMALY   = 354.2727

EPHEMERIS_TYPE = 0
CLASSIFICATION_TYPE = U
NORAD_CAT_ID   = 15483
ELEMENT_SET_NO = 999
REV_AT_EPOCH   = 15549
BSTAR          = .10846173E-3
MEAN_MOTION_DOT = .301E-5
MEAN_MOTION_DDOT = 0

CCSDS_OMM_VERS = 2.0
CREATION_DATE  = 
ORIGINATOR     = 

OBJECT_NAME    = SL-12 R/B(2)
OBJECT_ID      = 1985-042D
CENTER_NAME    = EARTH
REF_FRAME      = TEME
TIME_SYSTEM    = UTC
MEAN_ELEMENT_THEORY = SGP/SGP4

EPOCH          = 2026-03-19T23:10:32.615328
MEAN_MOTION    = 14.21985213
ECCENTRICITY   = .00329479
INCLINATION    = 71.1069
RA_OF_ASC_NODE = 66.0162
ARG_OF_PERICENTER = 111.1537
MEAN_ANOMALY   = 315.1460

EPHEMERIS_TYPE = 0
CLASSIFICATION_TYPE = U
NORAD_CAT_ID   = 15772
ELEMENT_SET_NO = 999
REV_AT_EPOCH   = 11585
BSTAR          = .27924307E-4
MEAN_MOTION_DOT = .15E-6
MEAN_MOTION_DDOT = 0

CCSDS_OMM_VERS = 2.0
CREATION_DATE  = 
ORIGINATOR     = 

OBJECT_NAME    = SL-14 R/B
OBJECT_ID      = 1985-069B
CENTER_NAME    = EARTH
REF_FRAME      = TEME
TIME_SYSTEM    = UTC
MEAN_ELEMENT_THEORY = SGP/SGP4

EPOCH          = 2026-03-19T21:50:29.718816
MEAN_MOTION    = 14.86444307
ECCENTRICITY   = .00193969
INCLINATION    = 82.5299
RA_OF_ASC_NODE = 15.3246
ARG_OF_PERICENTER = 154.1441
MEAN_ANOMALY   = 206.0750

EPHEMERIS_TYPE = 0
CLASSIFICATION_TYPE = U
NORAD_CAT_ID   = 15945
ELEMENT_SET_NO = 999
REV_AT_EPOCH   = 17435
BSTAR          = .49699779E-4
MEAN_MOTION_DOT = .465E-5
MEAN_MOTION_DDOT = 0

CCSDS_OMM_VERS = 2.0
CREATION_DATE  = 
ORIGINATOR     = 

OBJECT_NAME    = SL-16 R/B
OBJECT_ID      = 1985-097B
CENTER_NAME    = EARTH
REF_FRAME      = TEME
TIME_SYSTEM    = UTC
MEAN_ELEMENT_THEORY = SGP/SGP4

EPOCH          = 2026-03-19T12:53:25.991232
MEAN_MOTION    = 14.16599996
ECCENTRICITY   = .00096134
INCLINATION    = 71.0013
RA_OF_ASC_NODE = 119.8227
ARG_OF_PERICENTER = 247.7499
MEAN_ANOMALY   = 264.0019

EPHEMERIS_TYPE = 0
CLASSIFICATION_TYPE = U
NORAD_CAT_ID   = 16182
ELEMENT_SET_NO = 999
REV_AT_EPOCH   = 8862
BSTAR          = .16025488E-3
MEAN_MOTION_DOT = .272E-5
MEAN_MOTION_DDOT = 0

CCSDS_OMM_VERS = 2.0
CREATION_DATE  = 
ORIGINATOR     = 

OBJECT_NAME    = SL-14 R/B
OBJECT_ID      = 1986-006B
CENTER_NAME    = EARTH
REF_FRAME      = TEME
TIME_SYSTEM    = UTC
MEAN_ELEMENT_THEORY = SGP/SGP4

EPOCH          = 2026-03-19T22:50:35.089728
MEAN_MOTION    = 14.86829680
ECCENTRICITY   = .00752706
INCLINATION    = 82.5239
RA_OF_ASC_NODE = 250.0759
ARG_OF_PERICENTER = 238.1340
MEAN_ANOMALY   = 121.2537

EPHEMERIS_TYPE = 0
CLASSIFICATION_TYPE = U
NORAD_CAT_ID   = 16496
ELEMENT_SET_NO = 999
REV_AT_EPOCH   = 15073
BSTAR          = .72670151E-4
MEAN_MOTION_DOT = .708E-5
MEAN_MOTION_DDOT = 0

CCSDS_OMM_VERS = 2.0
CREATION_DATE  = 
ORIGINATOR     = 

OBJECT_NAME    = COSMOS 1743
OBJECT_ID      = 1986-034A
CENTER_NAME    = EARTH
REF_FRAME      = TEME
TIME_SYSTEM    = UTC
MEAN_ELEMENT_THEORY = SGP/SGP4

EPOCH          = 2026-03-19T21:53:34.359936
MEAN_MOTION    = 15.59302832
ECCENTRICITY   = .00024973
INCLINATION    = 82.5290
RA_OF_ASC_NODE = 63.0931
ARG_OF_PERICENTER = 205.3401
MEAN_ANOMALY   = 154.7733

EPHEMERIS_TYPE = 0
CLASSIFICATION_TYPE = U
NORAD_CAT_ID   = 16719
ELEMENT_SET_NO = 999
REV_AT_EPOCH   = 18184
BSTAR          = .40903309E-3
MEAN_MOTION_DOT = .32279E-3
MEAN_MOTION_DDOT = 0

